STARLINK-5816           
1 55778U 23028AP  26008.31831699 -.00004184  00000+0 -34292-3 0  9994
2 55778  70.0000  16.5294 0002715 272.5403  87.5445 14.98347291157493
STARLINK-5817           
1 55779U 23028AQ  26008.28887715  .00001976  00000+0  17338-3 0  9997
2 55779  70.0005 356.5465 0003045 267.3275  92.7535 14.98328304157988
STARLINK-5819           
1 55780U 23028AR  26008.31413931 -.00000224  00000+0 -11008-4 0  9994
2 55780  70.0002  16.5147 0002960 271.5945  88.4875 14.98331990157493
STARLINK-5820           
1 55781U 23028AS  26008.25990879  .00000160  00000+0  21153-4 0  9998
2 55781  70.0005  16.7605 0002644 279.1626  80.9234 14.98341060157481
STARLINK-5826           
1 55782U 23028AT  26008.33334491  .00036542  00000+0  30557-2 0  9999
2 55782  70.0028 356.8164 0003026 274.0168 347.3568 14.98313458  5779
STARLINK-5825           
1 55783U 23028AU  26008.28472400 -.00000250  00000+0 -13193-4 0  9995
2 55783  70.0007 356.9377 0002953 268.8852  91.1969 14.98330424157974
STARLINK-5797           
1 55784U 23028AV  26008.13469397 -.00004797  00000+0 -39475-3 0  9991
2 55784  70.0016 357.2163 0002595 266.5405  93.5458 14.98306083157954
STARLINK-5818           
1 55785U 23028AW  26008.28055122  .00000321  00000+0  34728-4 0  9999
2 55785  70.0008 356.9226 0003093 268.7964  91.2841 14.98331600157976
STARLINK-5823           
1 55786U 23028AX  26008.26803329 -.00000354  00000+0 -21912-4 0  9997
2 55786  70.0011 356.8787 0002799 265.3759  94.7081 14.98328805157976
STARLINK-5811           
1 55787U 23028AY  26008.27637664  .00000271  00000+0  30496-4 0  9999
2 55787  70.0007 356.9083 0002833 267.5818  92.5017 14.98332917157975
STARLINK-5804           
1 55788U 23028AZ  26008.27220500 -.00000957  00000+0 -72374-4 0  9991
2 55788  70.0002 356.8924 0003073 272.6998  87.3809 14.98332308157972
STARLINK-5815           
1 55789U 23028BA  26008.31391543  .00000626  00000+0  60283-4 0  9990
2 55789  70.0004 356.6357 0002887 265.4396  94.6434 14.98331370157981
STARLINK-5813           
1 55790U 23028BB  26008.31825582  .00000050  00000+0  12014-4 0  9997
2 55790  70.0005 356.6525 0003062 271.2540  88.8269 14.98333499157988
STARLINK-5807           
1 55791U 23028BC  26008.26385301 -.00000024  00000+0  57635-5 0  9993
2 55791  70.0004 356.8635 0002990 270.4434  89.6383 14.98330665157971
STARLINK-5856           
1 55914U 23037A   26008.27335350  .00005557  00000+0  47271-3 0  9998
2 55914  70.0012  96.9409 0003087 269.4668  90.6138 14.98362518155120
STARLINK-5859           
1 55915U 23037B   26008.32343020  .00000936  00000+0  86191-4 0  9999
2 55915  70.0015  96.7143 0002600 268.3012  91.7849 14.98334191155136
