[{"OBJECT_NAME":"STARLINK-5816","OBJECT_ID":"2023-028AP","EPOCH":"2026-01-08T07:38:22.587936","MEAN_MOTION":14.98347291,"ECCENTRICITY":0.00027155,"INCLINATION":70,"RA_OF_ASC_NODE":16.5294,"ARG_OF_PERICENTER":272.5403,"MEAN_ANOMALY":87.5445,"EPHEMERIS_TYPE":0,"CLASSIFICATION_TYPE":"U","NORAD_CAT_ID":55778,"ELEMENT_SET_NO":999,"REV_AT_EPOCH":15749,"BSTAR":-0.00034291819,"MEAN_MOTION_DOT":-4.184e-5,"MEAN_MOTION_DDOT":0},{"OBJECT_NAME":"STARLINK-5817","OBJECT_ID":"2023-028AQ","EPOCH":"2026-01-08T06:55:58.985760","MEAN_MOTION":14.98328304,"ECCENTRICITY":0.00030454,"INCLINATION":70.0005,"RA_OF_ASC_NODE":356.5465,"ARG_OF_PERICENTER":267.3275,"MEAN_ANOMALY":92.7535,"EPHEMERIS_TYPE":0,"CLASSIFICATION_TYPE":"U","NORAD_CAT_ID":55779,"ELEMENT_SET_NO":999,"REV_AT_EPOCH":15798,"BSTAR":0.00017338033,"MEAN_MOTION_DOT":1.976e-5,"MEAN_MOTION_DDOT":0},{"OBJECT_NAME":"STARLINK-5819","OBJECT_ID":"2023-028AR","EPOCH":"2026-01-08T07:32:21.636384","MEAN_MOTION":14.9833199,"ECCENTRICITY":0.00029603,"INCLINATION":70.0002,"RA_OF_ASC_NODE":16.5147,"ARG_OF_PERICENTER":271.5945,"MEAN_ANOMALY":88.4875,"EPHEMERIS_TYPE":0,"CLASSIFICATION_TYPE":"U","NORAD_CAT_ID":55780,"ELEMENT_SET_NO":999,"REV_AT_EPOCH":15749,"BSTAR":-1.1008336e-5,"MEAN_MOTION_DOT":-2.24e-6,"MEAN_MOTION_DDOT":0},{"OBJECT_NAME":"STARLINK-5820","OBJECT_ID":"2023-028AS","EPOCH":"2026-01-08T06:14:16.119456","MEAN_MOTION":14.9834106,"ECCENTRICITY":0.00026449,"INCLINATION":70.0005,"RA_OF_ASC_NODE":16.7605,"ARG_OF_PERICENTER":279.1626,"MEAN_ANOMALY":80.9234,"EPHEMERIS_TYPE":0,"CLASSIFICATION_TYPE":"U","NORAD_CAT_ID":55781,"ELEMENT_SET_NO":999,"REV_AT_EPOCH":15748,"BSTAR":2.1152684e-5,"MEAN_MOTION_DOT":1.6e-6,"MEAN_MOTION_DDOT":0},{"OBJECT_NAME":"STARLINK-5826","OBJECT_ID":"2023-028AT","EPOCH":"2026-01-08T08:00:01.000224","MEAN_MOTION":14.98313458,"ECCENTRICITY":0.00030263,"INCLINATION":70.0028,"RA_OF_ASC_NODE":356.8164,"ARG_OF_PERICENTER":274.0168,"MEAN_ANOMALY":347.3568,"EPHEMERIS_TYPE":0,"CLASSIFICATION_TYPE":"U","NORAD_CAT_ID":55782,"ELEMENT_SET_NO":999,"REV_AT_EPOCH":577,"BSTAR":0.0030557044,"MEAN_MOTION_DOT":0.00036542,"MEAN_MOTION_DDOT":0},{"OBJECT_NAME":"STARLINK-5825","OBJECT_ID":"2023-028AU","EPOCH":"2026-01-08T06:50:00.153600","MEAN_MOTION":14.98330424,"ECCENTRICITY":0.00029532,"INCLINATION":70.0007,"RA_OF_ASC_NODE":356.9377,"ARG_OF_PERICENTER":268.8852,"MEAN_ANOMALY":91.1969,"EPHEMERIS_TYPE":0,"CLASSIFICATION_TYPE":"U","NORAD_CAT_ID":55783,"ELEMENT_SET_NO":999,"REV_AT_EPOCH":15797,"BSTAR":-1.3192569e-5,"MEAN_MOTION_DOT":-2.5e-6,"MEAN_MOTION_DDOT":0},{"OBJECT_NAME":"STARLINK-5797","OBJECT_ID":"2023-028AV","EPOCH":"2026-01-08T03:13:57.559008","MEAN_MOTION":14.98306083,"ECCENTRICITY":0.00025955,"INCLINATION":70.0016,"RA_OF_ASC_NODE":357.2163,"ARG_OF_PERICENTER":266.5405,"MEAN_ANOMALY":93.5458,"EPHEMERIS_TYPE":0,"CLASSIFICATION_TYPE":"U","NORAD_CAT_ID":55784,"ELEMENT_SET_NO":999,"REV_AT_EPOCH":15795,"BSTAR":-0.00039474735,"MEAN_MOTION_DOT":-4.797e-5,"MEAN_MOTION_DDOT":0},{"OBJECT_NAME":"STARLINK-5818","OBJECT_ID":"2023-028AW","EPOCH":"2026-01-08T06:43:59.625408","MEAN_MOTION":14.983316,"ECCENTRICITY":0.00030933,"INCLINATION":70.0008,"RA_OF_ASC_NODE":356.9226,"ARG_OF_PERICENTER":268.7964,"MEAN_ANOMALY":91.2841,"EPHEMERIS_TYPE":0,"CLASSIFICATION_TYPE":"U","NORAD_CAT_ID":55785,"ELEMENT_SET_NO":999,"REV_AT_EPOCH":15797,"BSTAR":3.47283e-5,"MEAN_MOTION_DOT":3.21e-6,"MEAN_MOTION_DDOT":0},{"OBJECT_NAME":"STARLINK-5823","OBJECT_ID":"2023-028AX","EPOCH":"2026-01-08T06:25:58.076256","MEAN_MOTION":14.98328805,"ECCENTRICITY":0.00027991,"INCLINATION":70.0011,"RA_OF_ASC_NODE":356.8787,"ARG_OF_PERICENTER":265.3759,"MEAN_ANOMALY":94.7081,"EPHEMERIS_TYPE":0,"CLASSIFICATION_TYPE":"U","NORAD_CAT_ID":55786,"ELEMENT_SET_NO":999,"REV_AT_EPOCH":15797,"BSTAR":-2.1912128e-5,"MEAN_MOTION_DOT":-3.54e-6,"MEAN_MOTION_DDOT":0},{"OBJECT_NAME":"STARLINK-5811","OBJECT_ID":"2023-028AY","EPOCH":"2026-01-08T06:37:58.941696","MEAN_MOTION":14.98332917,"ECCENTRICITY":0.00028339,"INCLINATION":70.0007,"RA_OF_ASC_NODE":356.9083,"ARG_OF_PERICENTER":267.5818,"MEAN_ANOMALY":92.5017,"EPHEMERIS_TYPE":0,"CLASSIFICATION_TYPE":"U","NORAD_CAT_ID":55787,"ELEMENT_SET_NO":999,"REV_AT_EPOCH":15797,"BSTAR":3.0495702e-5,"MEAN_MOTION_DOT":2.71e-6,"MEAN_MOTION_DDOT":0},{"OBJECT_NAME":"STARLINK-5804","OBJECT_ID":"2023-028AZ","EPOCH":"2026-01-08T06:31:58.512000","MEAN_MOTION":14.98332308,"ECCENTRICITY":0.00030731,"INCLINATION":70.0002,"RA_OF_ASC_NODE":356.8924,"ARG_OF_PERICENTER":272.6998,"MEAN_ANOMALY":87.3809,"EPHEMERIS_TYPE":0,"CLASSIFICATION_TYPE":"U","NORAD_CAT_ID":55788,"ELEMENT_SET_NO":999,"REV_AT_EPOCH":15797,"BSTAR":-7.2374027e-5,"MEAN_MOTION_DOT":-9.57e-6,"MEAN_MOTION_DDOT":0},{"OBJECT_NAME":"STARLINK-5815","OBJECT_ID":"2023-028BA","EPOCH":"2026-01-08T07:32:02.293152","MEAN_MOTION":14.9833137,"ECCENTRICITY":0.00028872,"INCLINATION":70.0004,"RA_OF_ASC_NODE":356.6357,"ARG_OF_PERICENTER":265.4396,"MEAN_ANOMALY":94.6434,"EPHEMERIS_TYPE":0,"CLASSIFICATION_TYPE":"U","NORAD_CAT_ID":55789,"ELEMENT_SET_NO":999,"REV_AT_EPOCH":15798,"BSTAR":6.0282695e-5,"MEAN_MOTION_DOT":6.26e-6,"MEAN_MOTION_DDOT":0},{"OBJECT_NAME":"STARLINK-5813","OBJECT_ID":"2023-028BB","EPOCH":"2026-01-08T07:38:17.302848","MEAN_MOTION":14.98333499,"ECCENTRICITY":0.0003062,"INCLINATION":70.0005,"RA_OF_ASC_NODE":356.6525,"ARG_OF_PERICENTER":271.254,"MEAN_ANOMALY":88.8269,"EPHEMERIS_TYPE":0,"CLASSIFICATION_TYPE":"U","NORAD_CAT_ID":55790,"ELEMENT_SET_NO":999,"REV_AT_EPOCH":15798,"BSTAR":1.2014378e-5,"MEAN_MOTION_DOT":5.0e-7,"MEAN_MOTION_DDOT":0},{"OBJECT_NAME":"STARLINK-5807","OBJECT_ID":"2023-028BC","EPOCH":"2026-01-08T06:19:56.900064","MEAN_MOTION":14.98330665,"ECCENTRICITY":0.000299,"INCLINATION":70.0004,"RA_OF_ASC_NODE":356.8635,"ARG_OF_PERICENTER":270.4434,"MEAN_ANOMALY":89.6383,"EPHEMERIS_TYPE":0,"CLASSIFICATION_TYPE":"U","NORAD_CAT_ID":55791,"ELEMENT_SET_NO":999,"REV_AT_EPOCH":15797,"BSTAR":5.763467e-6,"MEAN_MOTION_DOT":-2.4e-7,"MEAN_MOTION_DDOT":0},{"OBJECT_NAME":"STARLINK-5856","OBJECT_ID":"2023-037A","EPOCH":"2026-01-08T06:33:37.742400","MEAN_MOTION":14.98362518,"ECCENTRICITY":0.0003087,"INCLINATION":70.0012,"RA_OF_ASC_NODE":96.9409,"ARG_OF_PERICENTER":269.4668,"MEAN_ANOMALY":90.6138,"EPHEMERIS_TYPE":0,"CLASSIFICATION_TYPE":"U","NORAD_CAT_ID":55914,"ELEMENT_SET_NO":999,"REV_AT_EPOCH":15512,"BSTAR":0.0004727135,"MEAN_MOTION_DOT":5.557e-5,"MEAN_MOTION_DDOT":0},{"OBJECT_NAME":"STARLINK-5859","OBJECT_ID":"2023-037B","EPOCH":"2026-01-08T07:45:44.369280","MEAN_MOTION":14.98334191,"ECCENTRICITY":0.00026008,"INCLINATION":70.0015,"RA_OF_ASC_NODE":96.7143,"ARG_OF_PERICENTER":268.3012,"MEAN_ANOMALY":91.7849,"EPHEMERIS_TYPE":0,"CLASSIFICATION_TYPE":"U","NORAD_CAT_ID":55915,"ELEMENT_SET_NO":999,"REV_AT_EPOCH":15513,"BSTAR":8.6191268e-5,"MEAN_MOTION_DOT":9.36e-6,"MEAN_MOTION_DDOT":0}]
